{"type": "FeatureCollection", "features": [ {"type": "Feature", "properties": {"norad_id": 40697, "name": "SENTINEL-2A", "group": "resource", "lat": 75.11933857448824, "lon": 21.859812996750755, "alt_km": 781.0653532628721, "timestamp": "2025-12-09T20:37:08.938902+00:00", "meta": {"OBJECT_NAME": "SENTINEL-2A", "OBJECT_ID": "2015-028A", "EPOCH": "2025-12-09T15:13:19.337376", "MEAN_MOTION": 14.30825461, "ECCENTRICITY": 0.00010588, "INCLINATION": 98.5692, "RA_OF_ASC_NODE": 56.2111, "ARG_OF_PERICENTER": 89.2494, "MEAN_ANOMALY": 270.881, "EPHEMERIS_TYPE": 0, "CLASSIFICATION_TYPE": "U", "NORAD_CAT_ID": 40697, "ELEMENT_SET_NO": 999, "REV_AT_EPOCH": 54662, "BSTAR": 0.00010724625, "MEAN_MOTION_DOT": 2.38e-06, "MEAN_MOTION_DDOT": 0}, "tle": {"line1": "1 40697U 15028A   25343.63425159  .00000238  00000+0  10725-3 0  9994", "line2": "2 40697  98.5692  56.2111 0001058  89.2494 270.8810 14.30825461546626"}}, "geometry": {"type": "Point", "coordinates": [21.859812996750755, 75.11933857448824]}}, {"type": "Feature", "properties": {"norad_id": 40701, "name": "GAOFEN-8", "group": "resource", "lat": 82.30235380786121, "lon": 72.90179891971792, "alt_km": 439.20237197161623, "timestamp": "2025-12-09T20:37:08.938912+00:00", "meta": {"OBJECT_NAME": "GAOFEN-8", "OBJECT_ID": "2015-030A", "EPOCH": "2025-12-09T15:32:47.899968", "MEAN_MOTION": 15.38395005, "ECCENTRICITY": 0.00114661, "INCLINATION": 97.691, "RA_OF_ASC_NODE": 161.6377, "ARG_OF_PERICENTER": 148.7021, "MEAN_ANOMALY": 211.4908, "EPHEMERIS_TYPE": 0, "CLASSIFICATION_TYPE": "U", "NORAD_CAT_ID": 40701, "ELEMENT_SET_NO": 999, "REV_AT_EPOCH": 58223, "BSTAR": 0.00082901982, "MEAN_MOTION_DOT": 0.0003146, "MEAN_MOTION_DDOT": 0}, "tle": {"line1": "1 40701U 15030A   25343.64777662  .00031460  00000+0  82902-3 0  9990", "line2": "2 40701  97.6910 161.6377 0011466 148.7021 211.4908 15.38395005582232"}}, "geometry": {"type": "Point", "coordinates": [72.90179891971792, 82.30235380786121]}}, {"type": "Feature", "properties": {"norad_id": 40718, "name": "CARBONITE 1 (CBNT-1)", "group": "resource", "lat": -57.90714026373872, "lon": -27.32990905523739, "alt_km": 621.2021685108266, "timestamp": "2025-12-09T20:37:08.938922+00:00", "meta": {"OBJECT_NAME": "CARBONITE 1 (CBNT-1)", "OBJECT_ID": "2015-032D", "EPOCH": "2025-12-09T14:41:14.672832", "MEAN_MOTION": 14.82720542, "ECCENTRICITY": 0.00142308, "INCLINATION": 97.6406, "RA_OF_ASC_NODE": 164.7941, "ARG_OF_PERICENTER": 191.3934, "MEAN_ANOMALY": 168.696, "EPHEMERIS_TYPE": 0, "CLASSIFICATION_TYPE": "U", "NORAD_CAT_ID": 40718, "ELEMENT_SET_NO": 999, "REV_AT_EPOCH": 56124, "BSTAR": 0.000327303, "MEAN_MOTION_DOT": 2.596e-05, "MEAN_MOTION_DDOT": 0}, "tle": {"line1": "1 40718U 15032D   25343.61197538  .00002596  00000+0  32730-3 0  9997", "line2": "2 40718  97.6406 164.7941 0014230 191.3934 168.6960 14.82720542561245"}}, "geometry": {"type": "Point", "coordinates": [-27.32990905523739, -57.90714026373872]}}, {"type": "Feature", "properties": {"norad_id": 40878, "name": "YAOGAN-27", "group": "resource", "lat": -41.63776649877508, "lon": 144.4912546788465, "alt_km": 1204.3926992189963, "timestamp": "2025-12-09T20:37:08.938933+00:00", "meta": {"OBJECT_NAME": "YAOGAN-27", "OBJECT_ID": "2015-040A", "EPOCH": "2025-12-09T14:01:06.269376", "MEAN_MOTION": 13.16058881, "ECCENTRICITY": 0.00076895, "INCLINATION": 100.1006, "RA_OF_ASC_NODE": 333.3462, "ARG_OF_PERICENTER": 294.6844, "MEAN_ANOMALY": 65.3469, "EPHEMERIS_TYPE": 0, "CLASSIFICATION_TYPE": "U", "NORAD_CAT_ID": 40878, "ELEMENT_SET_NO": 999, "REV_AT_EPOCH": 49272, "BSTAR": -0.00010906544, "MEAN_MOTION_DOT": -8.4e-07, "MEAN_MOTION_DDOT": 0}, "tle": {"line1": "1 40878U 15040A   25343.58410034 -.00000084  00000+0 -10907-3 0  9992", "line2": "2 40878 100.1006 333.3462 0007689 294.6844  65.3469 13.16058881492726"}}, "geometry": {"type": "Point", "coordinates": [144.4912546788465, -41.63776649877508]}}, {"type": "Feature", "properties": {"norad_id": 40894, "name": "GAOFEN-9 01", "group": "resource", "lat": 16.81070499812278, "lon": -154.73233109562705, "alt_km": 632.1674364746159, "timestamp": "2025-12-09T20:37:08.938948+00:00", "meta": {"OBJECT_NAME": "GAOFEN-9 01", "OBJECT_ID": "2015-047A", "EPOCH": "2025-12-09T15:01:44.162976", "MEAN_MOTION": 14.82410793, "ECCENTRICITY": 0.0028619, "INCLINATION": 97.6546, "RA_OF_ASC_NODE": 22.7161, "ARG_OF_PERICENTER": 44.1292, "MEAN_ANOMALY": 316.2198, "EPHEMERIS_TYPE": 0, "CLASSIFICATION_TYPE": "U", "NORAD_CAT_ID": 40894, "ELEMENT_SET_NO": 999, "REV_AT_EPOCH": 55210, "BSTAR": 0.00025895872, "MEAN_MOTION_DOT": 2.038e-05, "MEAN_MOTION_DDOT": 0}, "tle": {"line1": "1 40894U 15047A   25343.62620559  .00002038  00000+0  25896-3 0  9999", "line2": "2 40894  97.6546  22.7161 0028619  44.1292 316.2198 14.82410793552103"}}, "geometry": {"type": "Point", "coordinates": [-154.73233109562705, 16.81070499812278]}}, {"type": "Feature", "properties": {"norad_id": 41026, "name": "YAOGAN-28", "group": "resource", "lat": -59.63970351172125, "lon": -70.87401142729107, "alt_km": 502.3062597336666, "timestamp": "2025-12-09T20:37:08.938958+00:00", "meta": {"OBJECT_NAME": "YAOGAN-28", "OBJECT_ID": "2015-064A", "EPOCH": "2025-12-09T14:50:31.490592", "MEAN_MOTION": 15.24267071, "ECCENTRICITY": 0.00122402, "INCLINATION": 97.2807, "RA_OF_ASC_NODE": 121.4991, "ARG_OF_PERICENTER": 136.2685, "MEAN_ANOMALY": 223.9525, "EPHEMERIS_TYPE": 0, "CLASSIFICATION_TYPE": "U", "NORAD_CAT_ID": 41026, "ELEMENT_SET_NO": 999, "REV_AT_EPOCH": 56177, "BSTAR": 0.00049561393, "MEAN_MOTION_DOT": 0.00012064, "MEAN_MOTION_DDOT": 0}, "tle": {"line1": "1 41026U 15064A   25343.61842003  .00012064  00000+0  49561-3 0  9990", "line2": "2 41026  97.2807 121.4991 0012240 136.2685 223.9525 15.24267071561774"}}, "geometry": {"type": "Point", "coordinates": [-70.87401142729107, -59.63970351172125]}}, {"type": "Feature", "properties": {"norad_id": 41038, "name": "YAOGAN-29", "group": "resource", "lat": 44.941021503873586, "lon": -1.0690858299573278, "alt_km": 616.2398320484235, "timestamp": "2025-12-09T20:37:08.938968+00:00", "meta": {"OBJECT_NAME": "YAOGAN-29", "OBJECT_ID": "2015-069A", "EPOCH": "2025-12-09T15:33:22.516128", "MEAN_MOTION": 14.82878684, "ECCENTRICITY": 4.239e-05, "INCLINATION": 98.0217, "RA_OF_ASC_NODE": 6.8095, "ARG_OF_PERICENTER": 353.9016, "MEAN_ANOMALY": 6.2191, "EPHEMERIS_TYPE": 0, "CLASSIFICATION_TYPE": "U", "NORAD_CAT_ID": 41038, "ELEMENT_SET_NO": 999, "REV_AT_EPOCH": 54253, "BSTAR": 0.00012782288, "MEAN_MOTION_DOT": 9.81e-06, "MEAN_MOTION_DDOT": 0}, "tle": {"line1": "1 41038U 15069A   25343.64817727  .00000981  00000+0  12782-3 0  9996", "line2": "2 41038  98.0217   6.8095 0000423 353.9016   6.2191 14.82878684542533"}}, "geometry": {"type": "Point", "coordinates": [-1.0690858299573278, 44.941021503873586]}}, {"type": "Feature", "properties": {"norad_id": 41167, "name": "KENT RIDGE 1", "group": "resource", "lat": -4.260858093770143, "lon": 68.70225019944023, "alt_km": 500.48051392328216, "timestamp": "2025-12-09T20:37:08.938979+00:00", "meta": {"OBJECT_NAME": "KENT RIDGE 1", "OBJECT_ID": "2015-077B", "EPOCH": "2025-12-09T08:44:52.188288", "MEAN_MOTION": 15.21595309, "ECCENTRICITY": 0.00085373, "INCLINATION": 14.9788, "RA_OF_ASC_NODE": 236.1876, "ARG_OF_PERICENTER": 82.9028, "MEAN_ANOMALY": 277.2264, "EPHEMERIS_TYPE": 0, "CLASSIFICATION_TYPE": "U", "NORAD_CAT_ID": 41167, "ELEMENT_SET_NO": 999, "REV_AT_EPOCH": 55212, "BSTAR": 0.00025929619, "MEAN_MOTION_DOT": 6.793e-05, "MEAN_MOTION_DDOT": 0}, "tle": {"line1": "1 41167U 15077B   25343.36449292  .00006793  00000+0  25930-3 0  9991", "line2": "2 41167  14.9788 236.1876 0008537  82.9028 277.2264 15.21595309552128"}}, "geometry": {"type": "Point", "coordinates": [68.70225019944023, -4.260858093770143]}}, {"type": "Feature", "properties": {"norad_id": 41194, "name": "GAOFEN-4", "group": "resource", "lat": 0.13926736765901235, "lon": 133.7987678572855, "alt_km": 35777.529183408034, "timestamp": "2025-12-09T20:37:08.938991+00:00", "meta": {"OBJECT_NAME": "GAOFEN-4", "OBJECT_ID": "2015-083A", "EPOCH": "2025-12-09T14:04:34.788000", "MEAN_MOTION": 1.00270678, "ECCENTRICITY": 0.00035945, "INCLINATION": 0.1626, "RA_OF_ASC_NODE": 80.7132, "ARG_OF_PERICENTER": 106.9083, "MEAN_ANOMALY": 207.8037, "EPHEMERIS_TYPE": 0, "CLASSIFICATION_TYPE": "U", "NORAD_CAT_ID": 41194, "ELEMENT_SET_NO": 999, "REV_AT_EPOCH": 3662, "BSTAR": 0, "MEAN_MOTION_DOT": -3.32e-06, "MEAN_MOTION_DDOT": 0}, "tle": {"line1": "1 41194U 15083A   25343.58651375 -.00000332  00000+0  00000+0 0  9990", "line2": "2 41194   0.1626  80.7132 0003594 106.9083 207.8037  1.00270678 36620"}}, "geometry": {"type": "Point", "coordinates": [133.7987678572855, 0.13926736765901235]}}, {"type": "Feature", "properties": {"norad_id": 41240, "name": "JASON-3", "group": "resource", "lat": -64.19162739644518, "lon": 97.02916663191273, "alt_km": 1311.8808864152952, "timestamp": "2025-12-09T20:37:08.939002+00:00", "meta": {"OBJECT_NAME": "JASON-3", "OBJECT_ID": "2016-002A", "EPOCH": "2025-12-09T15:26:31.132032", "MEAN_MOTION": 12.87626369, "ECCENTRICITY": 0.00071359, "INCLINATION": 66.0389, "RA_OF_ASC_NODE": 164.334, "ARG_OF_PERICENTER": 270.5763, "MEAN_ANOMALY": 89.4438, "EPHEMERIS_TYPE": 0, "CLASSIFICATION_TYPE": "U", "NORAD_CAT_ID": 41240, "ELEMENT_SET_NO": 999, "REV_AT_EPOCH": 46284, "BSTAR": 5.5499874e-05, "MEAN_MOTION_DOT": -4.8e-07, "MEAN_MOTION_DDOT": 0}, "tle": {"line1": "1 41240U 16002A   25343.64341588 -.00000048  00000+0  55500-4 0  9997", "line2": "2 41240  66.0389 164.3340 0007135 270.5763  89.4438 12.87626369462842"}}, "geometry": {"type": "Point", "coordinates": [97.02916663191273, -64.19162739644518]}}]}